{"type": "FeatureCollection", "features": [ {"type": "Feature", "properties": {"norad_id": 17070, "name": "POLAR BEAR", "group": "nnss", "lat": 35.86015272779998, "lon": 3.5071368371548854, "alt_km": 950.8409015989782, "timestamp": "2025-12-12T11:38:31.680571+00:00", "meta": {"OBJECT_NAME": "POLAR BEAR", "OBJECT_ID": "1986-088A", "EPOCH": "2025-12-12T02:47:54.957120", "MEAN_MOTION": 13.75250552, "ECCENTRICITY": 0.0040938, "INCLINATION": 89.6174, "RA_OF_ASC_NODE": 183.7987, "ARG_OF_PERICENTER": 121.0427, "MEAN_ANOMALY": 359.6166, "EPHEMERIS_TYPE": 0, "CLASSIFICATION_TYPE": "U", "NORAD_CAT_ID": 17070, "ELEMENT_SET_NO": 999, "REV_AT_EPOCH": 95970, "BSTAR": 0.00014214, "MEAN_MOTION_DOT": 1.49e-06, "MEAN_MOTION_DDOT": 0}, "tle": {"line1": "1 17070U 86088A   25346.11660830  .00000149  00000+0  14214-3 0  9998", "line2": "2 17070  89.6174 183.7987 0040938 121.0427 359.6166 13.75250552959707"}}, "geometry": {"type": "Point", "coordinates": [3.5071368371548854, 35.86015272779998]}}, {"type": "Feature", "properties": {"norad_id": 18361, "name": "OSCAR 27", "group": "nnss", "lat": 68.55655896643694, "lon": 78.30952702327431, "alt_km": 1154.5237940314828, "timestamp": "2025-12-12T11:38:31.680582+00:00", "meta": {"OBJECT_NAME": "OSCAR 27", "OBJECT_ID": "1987-080A", "EPOCH": "2025-12-12T04:09:13.012992", "MEAN_MOTION": 13.4490658, "ECCENTRICITY": 0.010286, "INCLINATION": 90.3742, "RA_OF_ASC_NODE": 79.2512, "ARG_OF_PERICENTER": 225.4315, "MEAN_ANOMALY": 133.8402, "EPHEMERIS_TYPE": 0, "CLASSIFICATION_TYPE": "U", "NORAD_CAT_ID": 18361, "ELEMENT_SET_NO": 999, "REV_AT_EPOCH": 87549, "BSTAR": 0.00024964, "MEAN_MOTION_DOT": 1.59e-06, "MEAN_MOTION_DDOT": 0}, "tle": {"line1": "1 18361U 87080A   25346.17306728  .00000159  00000+0  24964-3 0  9998", "line2": "2 18361  90.3742  79.2512 0102860 225.4315 133.8402 13.44906580875495"}}, "geometry": {"type": "Point", "coordinates": [78.30952702327431, 68.55655896643694]}}, {"type": "Feature", "properties": {"norad_id": 18362, "name": "OSCAR 29", "group": "nnss", "lat": 81.39208340690521, "lon": 77.24018652993847, "alt_km": 1160.8626195579736, "timestamp": "2025-12-12T11:38:31.680592+00:00", "meta": {"OBJECT_NAME": "OSCAR 29", "OBJECT_ID": "1987-080B", "EPOCH": "2025-12-12T04:24:07.767936", "MEAN_MOTION": 13.44448317, "ECCENTRICITY": 0.0103887, "INCLINATION": 90.3753, "RA_OF_ASC_NODE": 79.7104, "ARG_OF_PERICENTER": 248.7755, "MEAN_ANOMALY": 173.7178, "EPHEMERIS_TYPE": 0, "CLASSIFICATION_TYPE": "U", "NORAD_CAT_ID": 18362, "ELEMENT_SET_NO": 999, "REV_AT_EPOCH": 87502, "BSTAR": 0.00022748, "MEAN_MOTION_DOT": 1.44e-06, "MEAN_MOTION_DDOT": 0}, "tle": {"line1": "1 18362U 87080B   25346.18342324  .00000144  00000+0  22748-3 0  9994", "line2": "2 18362  90.3753  79.7104 0103887 248.7755 173.7178 13.44448317875027"}}, "geometry": {"type": "Point", "coordinates": [77.24018652993847, 81.39208340690521]}}, {"type": "Feature", "properties": {"norad_id": 19070, "name": "OSCAR 23", "group": "nnss", "lat": -54.114062949272906, "lon": -164.0595077403875, "alt_km": 1075.3719642060178, "timestamp": "2025-12-12T11:38:31.680602+00:00", "meta": {"OBJECT_NAME": "OSCAR 23", "OBJECT_ID": "1988-033A", "EPOCH": "2025-12-12T03:35:59.447040", "MEAN_MOTION": 13.27787071, "ECCENTRICITY": 0.0189488, "INCLINATION": 90.3213, "RA_OF_ASC_NODE": 16.3744, "ARG_OF_PERICENTER": 181.559, "MEAN_ANOMALY": 249.9206, "EPHEMERIS_TYPE": 0, "CLASSIFICATION_TYPE": "U", "NORAD_CAT_ID": 19070, "ELEMENT_SET_NO": 999, "REV_AT_EPOCH": 82245, "BSTAR": 0.0001938, "MEAN_MOTION_DOT": 1.05e-06, "MEAN_MOTION_DDOT": 0}, "tle": {"line1": "1 19070U 88033A   25346.14999360  .00000105  00000+0  19380-3 0  9999", "line2": "2 19070  90.3213  16.3744 0189488 181.5590 249.9206 13.27787071822455"}}, "geometry": {"type": "Point", "coordinates": [-164.0595077403875, -54.114062949272906]}}, {"type": "Feature", "properties": {"norad_id": 19071, "name": "OSCAR 32", "group": "nnss", "lat": -17.45103154175703, "lon": 16.617968922334256, "alt_km": 1300.7387569549755, "timestamp": "2025-12-12T11:38:31.680613+00:00", "meta": {"OBJECT_NAME": "OSCAR 32", "OBJECT_ID": "1988-033B", "EPOCH": "2025-12-12T03:03:00.403200", "MEAN_MOTION": 13.27953837, "ECCENTRICITY": 0.0188302, "INCLINATION": 90.3217, "RA_OF_ASC_NODE": 16.5056, "ARG_OF_PERICENTER": 168.4945, "MEAN_ANOMALY": 263.5055, "EPHEMERIS_TYPE": 0, "CLASSIFICATION_TYPE": "U", "NORAD_CAT_ID": 19071, "ELEMENT_SET_NO": 999, "REV_AT_EPOCH": 82257, "BSTAR": 0.00014197, "MEAN_MOTION_DOT": 8e-07, "MEAN_MOTION_DDOT": 0}, "tle": {"line1": "1 19071U 88033B   25346.12708800  .00000080  00000+0  14197-3 0  9998", "line2": "2 19071  90.3217  16.5056 0188302 168.4945 263.5055 13.27953837822572"}}, "geometry": {"type": "Point", "coordinates": [16.617968922334256, -17.45103154175703]}}, {"type": "Feature", "properties": {"norad_id": 19223, "name": "NOVA 2", "group": "nnss", "lat": -4.4911533169965, "lon": -101.72625470928101, "alt_km": 1199.5547177566868, "timestamp": "2025-12-12T11:38:31.680623+00:00", "meta": {"OBJECT_NAME": "NOVA 2", "OBJECT_ID": "1988-052A", "EPOCH": "2025-12-11T20:48:30.108096", "MEAN_MOTION": 13.22935796, "ECCENTRICITY": 0.0030666, "INCLINATION": 89.9872, "RA_OF_ASC_NODE": 78.2735, "ARG_OF_PERICENTER": 19.2883, "MEAN_ANOMALY": 103.0937, "EPHEMERIS_TYPE": 0, "CLASSIFICATION_TYPE": "U", "NORAD_CAT_ID": 19223, "ELEMENT_SET_NO": 999, "REV_AT_EPOCH": 80936, "BSTAR": 0.00020974, "MEAN_MOTION_DOT": 9.7e-07, "MEAN_MOTION_DDOT": 0}, "tle": {"line1": "1 19223U 88052A   25345.86701514  .00000097  00000+0  20974-3 0  9991", "line2": "2 19223  89.9872  78.2735 0030666  19.2883 103.0937 13.22935796809362"}}, "geometry": {"type": "Point", "coordinates": [-101.72625470928101, -4.4911533169965]}}, {"type": "Feature", "properties": {"norad_id": 19419, "name": "OSCAR 25", "group": "nnss", "lat": -62.445536152673114, "lon": -159.82327462190582, "alt_km": 1036.3536088226274, "timestamp": "2025-12-12T11:38:31.680634+00:00", "meta": {"OBJECT_NAME": "OSCAR 25", "OBJECT_ID": "1988-074A", "EPOCH": "2025-12-12T03:36:13.830048", "MEAN_MOTION": 13.42623104, "ECCENTRICITY": 0.009443, "INCLINATION": 90.0348, "RA_OF_ASC_NODE": 20.2423, "ARG_OF_PERICENTER": 247.5604, "MEAN_ANOMALY": 177.0027, "EPHEMERIS_TYPE": 0, "CLASSIFICATION_TYPE": "U", "NORAD_CAT_ID": 19419, "ELEMENT_SET_NO": 999, "REV_AT_EPOCH": 82632, "BSTAR": 0.00019774, "MEAN_MOTION_DOT": 1.23e-06, "MEAN_MOTION_DDOT": 0}, "tle": {"line1": "1 19419U 88074A   25346.15016007  .00000123  00000+0  19774-3 0  9997", "line2": "2 19419  90.0348  20.2423 0094430 247.5604 177.0027 13.42623104826322"}}, "geometry": {"type": "Point", "coordinates": [-159.82327462190582, -62.445536152673114]}}, {"type": "Feature", "properties": {"norad_id": 19420, "name": "OSCAR 31", "group": "nnss", "lat": 54.62786765337478, "lon": -159.35527287974156, "alt_km": 1123.7470367993283, "timestamp": "2025-12-12T11:38:31.680644+00:00", "meta": {"OBJECT_NAME": "OSCAR 31", "OBJECT_ID": "1988-074B", "EPOCH": "2025-12-12T04:11:40.444224", "MEAN_MOTION": 13.42584529, "ECCENTRICITY": 0.009271, "INCLINATION": 90.0364, "RA_OF_ASC_NODE": 20.5923, "ARG_OF_PERICENTER": 241.5752, "MEAN_ANOMALY": 185.7364, "EPHEMERIS_TYPE": 0, "CLASSIFICATION_TYPE": "U", "NORAD_CAT_ID": 19420, "ELEMENT_SET_NO": 999, "REV_AT_EPOCH": 82643, "BSTAR": 0.0001915, "MEAN_MOTION_DOT": 1.2e-06, "MEAN_MOTION_DDOT": 0}, "tle": {"line1": "1 19420U 88074B   25346.17477366  .00000120  00000+0  19150-3 0  9995", "line2": "2 19420  90.0364  20.5923 0092710 241.5752 185.7364 13.42584529826436"}}, "geometry": {"type": "Point", "coordinates": [-159.35527287974156, 54.62786765337478]}}]}